[{"OBJECT_NAME":"FLOCK 4H-5","OBJECT_ID":"2025-276AU","EPOCH":"2026-03-09T15:18:32.982336","MEAN_MOTION":15.19385121,"ECCENTRICITY":8.97e-5,"INCLINATION":97.4248,"RA_OF_ASC_NODE":143.966,"ARG_OF_PERICENTER":79.176,"MEAN_ANOMALY":280.9576,"EPHEMERIS_TYPE":0,"CLASSIFICATION_TYPE":"U","NORAD_CAT_ID":66708,"ELEMENT_SET_NO":999,"REV_AT_EPOCH":1531,"BSTAR":0.00036669,"MEAN_MOTION_DOT":7.693e-5,"MEAN_MOTION_DDOT":0},{"OBJECT_NAME":"CARBSAR","OBJECT_ID":"2026-004AL","EPOCH":"2026-03-09T21:38:55.142304","MEAN_MOTION":15.18376766,"ECCENTRICITY":0.00049276,"INCLINATION":97.4551,"RA_OF_ASC_NODE":69.3924,"ARG_OF_PERICENTER":346.0062,"MEAN_ANOMALY":14.1035,"EPHEMERIS_TYPE":0,"CLASSIFICATION_TYPE":"U","NORAD_CAT_ID":67397,"ELEMENT_SET_NO":999,"REV_AT_EPOCH":869,"BSTAR":0.00041216985,"MEAN_MOTION_DOT":8.41e-5,"MEAN_MOTION_DDOT":0}]
